2016/10/28 03:55
KQKB 280355Z 35010G16KT 10SM SCT240 13/06 A2990 RMK A02 SLP135 T01290061
