2017/07/25 13:00
LDZA 251300Z VRB05KT CAVOK 26/11 Q1005 BECMG 03008KT
