2018/04/15 17:30
LDZA 151730Z 33003KT CAVOK 17/13 Q1011 NOSIG
