2018/04/16 08:30
LHBP 160830Z 12009KT CAVOK 19/11 Q1013 NOSIG
