2018/04/16 06:00
LHBP 160600Z 10012KT CAVOK 18/11 Q1012 NOSIG
