2017/07/25 13:00
LHBP 251300Z 28020KT CAVOK 22/10 Q1004 NOSIG
