2018/04/16 08:15
LHKE 160815Z 15010KT CAVOK 18/11 Q1013 TEMPO -RA RMK BLU
