2018/04/16 05:45
LHKE 160545Z 13008KT 080V160 CAVOK 19/09 Q1012 NOSIG RMK BLU
