2017/07/25 12:45
LHPA 251245Z 32021G31KT CAVOK 24/08 Q1006 NOSIG RMK BLU
