2018/04/16 05:45
LHPA 160545Z 11006KT 070V140 9999 BKN033 BKN083 17/09 Q1010 TEMPO -RA RMK BLU
