2018/04/16 08:15
LHPA 160815Z 13010KT 9999 SCT040 BKN083 17/11 Q1011 RERA NOSIG RMK BLU
