2017/07/25 12:45
LHPP 251245Z 29008KT CAVOK 22/09 Q1006
