2018/04/16 05:45
LHPP 160545Z 09003KT 9999 -RA NSC 14/11 Q1011
