2017/07/25 12:45
LHPR 251245Z 30018KT 270V330 CAVOK 23/09 Q1005 RMK BLU
