2018/04/16 07:45
LHPR 160745Z 17006KT 140V200 9999 -RA NSC 17/12 Q1012 RMK BLU
