2018/04/16 07:45
LHSM 160745Z 07002KT CAVOK 16/13 Q1011 NOSIG
