2017/07/25 12:45
LHSM 251245Z 33005KT CAVOK 24/10 Q1006 NOSIG
