2017/07/25 13:00
LJCE 251300Z 06004KT 320V120 CAVOK 27/09 Q1004 RMK BLU
