2018/04/16 06:00
LJCE 160600Z 00000KT 7000 FEW010 SCT120 14/13 Q1010 RMK WHT
