2017/07/25 13:00
LJLJ 251300Z 10005KT 070V160 9999 VCSH FEW043TCU SCT060 24/10 Q1005 NOSIG
