2018/04/16 06:00
LJMB 160600Z 18002KT 6000 NSC 14/13 Q1010
