2017/07/25 13:00
LJMB 251300Z 21003KT 190V250 9999 SCT043 BKN060 23/09 Q1005
