2017/07/24 10:00
LKKU 241000Z 03008KT CAVOK 22/14 Q1009
