2018/04/13 14:00
LKKU 131400Z 17021KT 130V210 9999 SCT045 20/09 Q1010
