2018/04/15 17:00
LKNA 151700Z 15014KT CAVOK 19/10 Q1012 NOSIG RMK BLU BLU
