2017/07/25 13:00
LKNA 251300Z 27012KT CAVOK 19/07 Q1005 NOSIG RMK BLU BLU
