2017/07/25 13:00
LKTB 251300Z 30013KT 260V320 CAVOK 20/09 Q1004 NOSIG
