2013/08/01 07:00
LOAG 010700Z 33009KT 45KM FEW050CU 23/13 Q1022 RMK FEW
