2017/07/25 12:50
LOWG 251250Z 07005KT 020V140 9999 SHRA SCT070 22/10 Q1006 BECMG NSW
