2018/04/16 05:50
LOWG 160550Z VRB02KT 4000 BR FEW003 BKN080 14/13 Q1010 BECMG 6000 NSW
