2017/07/25 12:50
LOWK 251250Z 05006KT 330V100 9999 FEW050 FEW060CB 23/10 Q1006 NOSIG
