2018/04/16 05:50
LOWK 160550Z 29003KT 9000 FEW003 BKN009 BKN070 13/12 Q1011 TEMPO SCT010 BKN070
