2018/04/16 05:50
LOWL 160550Z 23005KT 9999 FEW044 SCT060 BKN100 13/10 Q1011 NOSIG
