2017/07/25 12:50
LOWL 251250Z 27008KT 240V300 9999 SCT036 BKN090 18/12 Q1007 TEMPO SHRA
