2018/04/16 05:50
LOWW 160550Z 11004KT 090V150 CAVOK 15/12 Q1011 NOSIG
