2017/07/25 12:50
LOWW 251250Z 29018KT 250V320 9999 FEW044 SCT080 BKN300 22/10 Q1006 NOSIG
