2012/09/10 08:20
LOXA 100820Z VRB02KT 50KM FEW120AC SCT300CI 17/13 Q1021 NOSIG RMK SCT
