2012/09/10 08:20
LOXN 100820Z 11006KT 50KM SCT300CI 24/14 Q1019 RMK SCT
