2018/04/16 05:50
LOXT 160550Z 09008KT 15KM FEW090AC BKN110AC 15/13 Q1010 NOSIG RMK BKN
