2017/07/25 12:50
LOXT 251250Z 24018KT 30KM FEW030CU SCT100AC BKN300CI 21/12 Q1006 NOSIG RMK BKN
