2018/04/16 05:50
LOXZ 160550Z 16003KT 6000 FEW003ST BKN060SC BKN070 12/11 Q1011 NOSIG
