2017/07/25 12:50
LOXZ 251250Z 30013G23KT 50KM FEW060CU SCT080SC 21/04 Q1007 RMK
