2018/04/15 17:30
LZIB 151730Z 09002KT CAVOK 20/13 Q1013 WS R13 NOSIG
