2017/07/25 13:00
LZIB 251300Z 29015KT 260V320 CAVOK 22/09 Q1005 NOSIG
