2018/04/15 17:30
LZPP 151730Z 13009KT CAVOK 21/10 Q1013
