2017/07/25 13:00
LZPP 251300Z 31011KT CAVOK 21/09 Q1005
